{
  "norad_id": 63485,
  "name": "STARLINK-33687",
  "history": [
    {
      "epoch": "2026-03-28T21:02:01.714272Z",
      "apogee_km": 483.80461037620535,
      "perigee_km": 482.1881273545014,
      "latitude_deg": 3.3205253021997226e-05,
      "longitude_deg": 9.337328828194886,
      "height_km": 482.4844792395588,
      "semi_major_axis_km": 6861.133368865353,
      "eccentricity": 0.0001178,
      "inclination_deg": 43.0033,
      "raan_deg": 151.135,
      "arg_perigee_deg": 290.9311,
      "mean_anomaly_deg": 69.1415,
      "mean_motion_rev_day": 15.27597609
    }
  ]
}